{
  "norad_id": 49279,
  "name": "ONEWEB-0332",
  "history": [
    {
      "epoch": "2026-03-28T20:07:04.441440",
      "apogee_km": 1207.1825311923067,
      "perigee_km": 1204.3927086816166,
      "latitude_deg": 3.6981764412199647,
      "longitude_deg": -91.62839840003289,
      "semi_major_axis_km": 7583.924619936962,
      "eccentricity": 0.00018393,
      "inclination_deg": 87.8952,
      "raan_deg": 305.7468,
      "arg_perigee_deg": 90.1835,
      "mean_anomaly_deg": 269.9506,
      "mean_motion_rev_day": 13.14503511
    },
    {
      "epoch": "2026-03-29T03:25:30.979488",
      "apogee_km": 1207.3887718178821,
      "perigee_km": 1204.3324207865726,
      "latitude_deg": 84.43199854142416,
      "longitude_deg": -62.3989116800949,
      "semi_major_axis_km": 7583.997596302227,
      "eccentricity": 0.0002015,
      "inclination_deg": 87.8951,
      "raan_deg": 305.6856,
      "arg_perigee_deg": 97.4433,
      "mean_anomaly_deg": 262.6926,
      "mean_motion_rev_day": 13.14484538
    }
  ]
}